OBJECT_NAME,OBJECT_ID,EPOCH,MEAN_MOTION,ECCENTRICITY,INCLINATION,RA_OF_ASC_NODE,ARG_OF_PERICENTER,MEAN_ANOMALY,EPHEMERIS_TYPE,CLASSIFICATION_TYPE,NORAD_CAT_ID,ELEMENT_SET_NO,REV_AT_EPOCH,BSTAR,MEAN_MOTION_DOT,MEAN_MOTION_DDOT
STARLINK-33819,2025-071B,2026-05-27T05:31:17.520096,15.42170946,.00012221,53.1591,134.4878,85.6672,274.4473,0,U,63494,999,6478,.9458434E-3,.40983E-3,0
STARLINK-33845,2025-071C,2026-05-27T06:33:51.136992,15.30199694,.00013059,53.1589,134.7508,80.9904,279.1244,0,U,63495,999,6478,.34159258E-3,.9771E-4,0
STARLINK-33829,2025-071D,2026-05-27T06:56:38.936256,15.30199314,.00013389,53.1606,134.8539,70.5628,289.5517,0,U,63496,999,6474,.69435508E-3,.20261E-3,0
STARLINK-33815,2025-071E,2026-05-27T05:36:16.081344,15.31695526,.00019889,53.1595,135.2172,48.3963,311.7209,0,U,63497,999,6479,.91828218E-3,.28235E-3,0
STARLINK-33833,2025-071F,2026-05-27T05:36:16.394976,15.30233876,.00013719,53.1583,135.2127,82.8081,277.3076,0,U,63498,999,6479,.13462284E-2,.39768E-3,0
STARLINK-33534,2025-071G,2026-05-27T04:49:12.726336,15.31718801,.00010078,53.1568,135.0125,115.7139,244.3967,0,U,63499,999,6477,.84560137E-3,.25982E-3,0
STARLINK-33838,2025-071H,2026-05-27T06:39:56.054304,15.30188263,.00014249,53.1599,134.7747,75.7770,284.3389,0,U,63500,999,6459,.69558547E-3,.20291E-3,0
STARLINK-33837,2025-071J,2026-05-27T05:56:27.785184,15.31449891,.00017659,53.1574,135.3037,85.5220,274.5983,0,U,63501,999,6473,.30133189E-2,.93588E-3,0
STARLINK-33818,2025-071K,2026-05-27T06:35:23.228160,15.30214046,.00014326,53.1586,134.7589,79.6455,280.4707,0,U,63502,999,6480,.72793869E-3,.21271E-3,0
STARLINK-33583,2025-071L,2026-05-27T06:45:55.528416,15.42170096,.00013416,53.1583,134.7995,82.4191,277.6967,0,U,63503,999,6481,.71431944E-3,.30808E-3,0
STARLINK-33811,2025-071M,2026-05-27T04:31:05.105856,15.30216145,.00014308,53.1562,135.6373,127.5156,232.5975,0,U,63504,999,6472,.10016844E-2,.2944E-3,0
STARLINK-33825,2025-071N,2026-05-27T04:47:38.594400,15.30213659,.00010244,53.1573,135.0011,53.2687,306.8408,0,U,63505,999,6479,.10964482E-2,.32269E-3,0
STARLINK-33792,2025-071P,2026-05-27T04:53:43.221408,15.30199763,.00012705,53.1561,135.0282,94.2337,265.8809,0,U,63506,999,6474,.25234561E-3,.7122E-4,0
STARLINK-33843,2025-071Q,2026-05-27T06:55:07.339296,15.30195771,.00011942,53.1594,134.8087,76.7819,283.3315,0,U,63507,999,6478,.1128071E-2,.33196E-3,0
STARLINK-33809,2025-071R,2026-05-27T06:00:02.000160,15.30140117,.00011683,53.1578,134.8601,78.2609,134.8870,0,U,63508,999,586,.21491012E-2,.6372E-3,0
STARLINK-33678,2025-071S,2026-05-27T06:16:25.875840,15.31706173,.00009757,53.1572,134.6413,95.5431,264.5681,0,U,63509,999,6453,.23690267E-3,.6995E-4,0
STARLINK-33764,2025-071T,2026-05-27T06:09:41.548032,15.30202217,.0001093,53.1569,135.3205,89.8687,270.2439,0,U,63510,999,6477,.33455305E-3,.9563E-4,0
STARLINK-33804,2025-071U,2026-05-27T05:29:31.912512,15.31728874,.00009302,53.1604,135.1467,99.4403,260.6704,0,U,63511,999,6442,.11334485E-2,.35004E-3,0
STARLINK-33751,2025-071V,2026-05-27T05:16:05.634624,15.31721995,.00015019,53.1607,135.0892,41.6036,318.5080,0,U,63512,999,6477,.13329604E-2,.41256E-3,0
STARLINK-33750,2025-071W,2026-05-27T06:36:36.582624,15.31700243,.00013355,53.1588,134.7298,99.2207,260.8946,0,U,63513,999,6478,.90526106E-3,.27831E-3,0
STARLINK-33786,2025-071X,2026-05-27T05:59:03.339744,15.30202368,.00010788,53.1568,135.2711,82.5754,277.5369,0,U,63514,999,6441,.48485776E-3,.14029E-3,0
STARLINK-33796,2025-071Y,2026-05-27T06:30:48.270528,15.30196185,.00011363,53.1575,134.6956,105.3901,254.7226,0,U,63515,999,6480,.80278723E-3,.23489E-3,0
STARLINK-33785,2025-071Z,2026-05-27T06:56:54.372480,15.31025460,.00081294,53.1595,134.8109,175.0737,185.0345,0,U,63516,999,6478,-.2032314E-1,-.573787E-2,0
STARLINK-33803,2025-071AA,2026-05-27T06:41:26.509056,15.30197185,.00014719,53.1599,134.7353,75.0315,285.0848,0,U,63517,999,6480,.29338503E-3,.8339E-4,0
STARLINK-33807,2025-071AB,2026-05-27T05:32:41.982144,15.42156414,.00012145,53.1588,134.4496,91.8215,268.2930,0,U,63518,999,6480,.99706819E-3,.43216E-3,0
STARLINK-33787,2025-071AC,2026-05-27T05:38:32.494848,15.30217221,.00007569,53.1598,137.3143,106.5386,253.5698,0,U,63519,999,6439,.10877702E-2,.32013E-3,0
TJS-17,2025-073A,2026-05-26T16:27:33.210720,1.00271875,.0002812,1.0105,82.8547,293.4895,279.2947,0,U,63524,999,407,0,-.66E-6,0
STARLINK-11669 [DTC],2025-075A,2026-05-27T02:08:04.186176,15.70879030,.00018985,43.0009,40.8036,260.2066,99.8587,0,U,63548,999,6558,.21506168E-2,.28567E-2,0
STARLINK-11665 [DTC],2025-075B,2026-05-27T02:46:17.630112,15.71085720,.00032257,43.0009,41.0163,258.0881,101.9625,0,U,63549,999,6558,.21377702E-2,.286486E-2,0
STARLINK-11667 [DTC],2025-075C,2026-05-27T01:45:19.001376,15.70868610,.00015134,43.0007,41.5714,288.9489,71.1214,0,U,63550,999,6557,.19472877E-2,.257624E-2,0
STARLINK-11695 [DTC],2025-075D,2026-05-27T02:09:21.519360,15.70821343,.00054896,43.0011,40.8105,248.1208,111.9076,0,U,63551,999,6558,.13017579E-2,.170011E-2,0
STARLINK-11685 [DTC],2025-075E,2026-05-27T02:23:21.825888,15.70856583,.00012665,43.0015,40.8893,293.5109,66.5625,0,U,63552,999,6558,.11343638E-2,.147824E-2,0
STARLINK-11697 [DTC],2025-075F,2026-05-27T02:31:00.463008,15.71074538,.00022612,43.0011,40.9289,266.1127,93.9482,0,U,63553,999,6558,.20551052E-2,.274855E-2,0
STARLINK-11680 [DTC],2025-075G,2026-05-27T01:37:39.619488,15.70933670,.0004287,43.0015,41.5262,253.1341,106.9057,0,U,63554,999,6557,.1564273E-2,.206193E-2,0
STARLINK-11626 [DTC],2025-075J,2026-05-27T02:00:36.671328,15.70865234,.00016937,43.0016,41.6532,286.1189,73.9493,0,U,63556,999,6557,.20577529E-2,.272726E-2,0
STARLINK-11668 [DTC],2025-075K,2026-05-27T01:52:57.793152,15.70848113,.00018052,43.0013,41.6082,266.6186,93.4475,0,U,63557,999,6557,.1774295E-2,.233818E-2,0
STARLINK-11657 [DTC],2025-075L,2026-05-27T03:01:35.018400,15.70867345,.00016583,43.0012,41.0985,259.3002,100.7679,0,U,63558,999,6558,.14898316E-2,.195505E-2,0
STARLINK-11606 [DTC],2025-075M,2026-05-27T02:15:42.406848,15.70853377,.0002287,43.0013,40.8406,247.9163,112.1462,0,U,63559,999,6558,.11613547E-2,.151405E-2,0
STARLINK-11592 [DTC],2025-075N,2026-05-27T02:38:38.956704,15.70855510,.00015154,43.0015,40.9691,281.7130,78.3567,0,U,63560,999,6558,.1432232E-2,.187656E-2,0
STARLINK-32953,2025-075P,2026-05-27T03:24:42.388128,15.27590339,.00013027,42.9980,187.7485,268.4543,91.6159,0,U,63561,999,6392,.50542166E-3,.13676E-3,0
STARLINK-32951,2025-075Q,2026-05-27T03:19:08.912640,15.27585053,.00010812,42.9975,187.6941,270.1586,89.9142,0,U,63562,999,6393,.71426506E-3,.19448E-3,0
STARLINK-32958,2025-075R,2026-05-27T03:04:21.034272,15.27597682,.00010848,42.9963,187.6414,264.7044,95.3684,0,U,63563,999,6392,.83285965E-3,.2274E-3,0
STARLINK-32928,2025-075S,2026-05-27T04:14:26.954304,15.27601599,.0001821,43.0010,187.1496,267.3425,92.7219,0,U,63564,999,6394,.12310264E-2,.33791E-3,0
STARLINK-32687,2025-075T,2026-05-27T03:17:17.733120,15.27598725,.00027327,42.9978,187.6815,284.7282,75.3267,0,U,63565,999,6393,.85991384E-3,.23491E-3,0
STARLINK-32950,2025-075U,2026-05-27T04:07:01.650432,15.27605197,.00012704,43.0008,187.0469,224.2380,135.8370,0,U,63566,999,6393,.58604965E-3,.15912E-3,0
STARLINK-32954,2025-075V,2026-05-27T04:25:32.833056,15.27597527,.00015743,42.9918,187.1692,243.9275,116.1414,0,U,63567,999,6393,.11372366E-2,.31182E-3,0
STARLINK-32940,2025-075W,2026-05-27T04:32:56.935968,15.27593113,.0001338,42.9983,187.2141,263.1640,96.9059,0,U,63568,999,6393,.55429046E-3,.15028E-3,0
STARLINK-32959,2025-076A,2026-05-27T06:34:23.289888,15.27606971,.00005769,42.9986,241.8743,193.6139,166.4697,0,U,63569,999,6380,.13691773E-2,.37638E-3,0
STARLINK-32956,2025-076B,2026-05-27T06:45:16.539552,15.27582851,.00008387,42.9971,241.0626,254.6109,105.4650,0,U,63570,999,6380,.10777631E-2,.29517E-3,0
STARLINK-33722,2025-076C,2026-05-27T07:06:18.237024,15.27593054,.00032771,42.9925,237.6408,154.7349,205.3663,0,U,63571,999,6384,.88391965E-3,.24153E-3,0
STARLINK-33739,2025-076D,2026-05-27T06:22:07.069440,15.27594113,.00009907,42.9956,238.2804,159.7767,200.3124,0,U,63572,999,6384,.10967899E-2,.30055E-3,0
STARLINK-33683,2025-076E,2026-05-27T06:20:16.326240,15.27612303,.00011788,42.9964,238.2681,159.1985,200.8914,0,U,63573,999,6384,.10954759E-2,.30036E-3,0
STARLINK-33732,2025-076G,2026-05-27T06:01:45.280128,15.27589134,.00018969,43.0009,238.1782,278.5458,81.5178,0,U,63575,999,6384,.51570898E-3,.1396E-3,0
STARLINK-33800,2025-076H,2026-05-27T05:24:44.907264,15.27585276,.00026208,43.0024,237.9752,231.6870,128.3747,0,U,63576,999,6384,.94974192E-3,.2597E-3,0
STARLINK-33632,2025-076J,2026-05-27T06:16:34.229856,15.27587932,.00010938,42.9967,238.2527,338.8120,21.2686,0,U,63577,999,6384,.76600059E-3,.20881E-3,0
STARLINK-33719,2025-076K,2026-05-27T05:37:42.451968,15.27595953,.00051331,43.0120,238.0503,272.6164,87.4100,0,U,63578,999,6384,.95284172E-3,.26071E-3,0
STARLINK-33755,2025-076L,2026-05-27T07:13:41.637504,15.27618584,.00020691,43.0020,237.6005,271.1977,88.8638,0,U,63579,999,6385,.11837907E-2,.32496E-3,0
STARLINK-33752,2025-076M,2026-05-27T05:58:03.959616,15.27619741,.00009371,43.0011,238.1528,179.1155,180.9698,0,U,63580,999,6384,.10898522E-2,.29886E-3,0
STARLINK-33714,2025-076N,2026-05-27T07:00:45.453600,15.27598017,.00044512,43.0111,237.6195,281.2200,78.8152,0,U,63581,999,6385,.73659772E-3,.20077E-3,0
STARLINK-33814,2025-076P,2026-05-27T06:51:30.414816,15.27584627,.00003277,42.9957,237.5632,208.3998,151.6836,0,U,63582,999,6385,.87844884E-3,.23993E-3,0
STARLINK-33817,2025-076Q,2026-05-27T06:42:16.494048,15.27637850,.00002287,42.9922,237.5120,156.6791,203.4071,0,U,63583,999,6384,.17145598E-2,.47306E-3,0
STARLINK-33820,2025-076R,2026-05-27T06:31:08.717952,15.27598598,.0001,42.9976,237.4540,170.2877,189.7994,0,U,63584,999,6385,.91279184E-3,.24955E-3,0
STARLINK-33813,2025-076S,2026-05-27T06:32:59.424864,15.27604805,.00009181,42.9986,237.4654,288.7609,71.3143,0,U,63585,999,6385,.84422845E-3,.23059E-3,0
